ALOS (DAICHI)           
1 28931U 06002A   25351.73419158  .00001110  00000+0  19545-3 0  9994
2 28931  98.1098 303.1864 0001361 113.5739 246.5610 14.69501788 61443
H-2A R/B                
1 28932U 06002B   25365.87621423  .00015720  00000+0  81382-3 0  9995
2 28932  98.2317 142.1947 0054658 111.8300 248.8757 15.15000676 84167
RESURS-DK 1             
1 29228U 06021A   25365.54999281  .00004915  00000+0  28925-3 0  9997
2 29228  69.9348  53.2216 0007006 242.6600 117.3853 15.12283479 77224
CZ-4B R/B               
1 29507U 06046C   25365.71299971  .00008263  00000+0  42600-3 0  9998
2 29507  97.5716  45.8001 0034797 141.0463 219.3286 15.16088511 49748
CZ-2C R/B               
1 31114U 07010B   25365.88176589  .00000250  00000+0  13377-3 0  9991
2 31114  98.3976 117.5695 0059839 130.7877 229.8514 14.20218672970094
COSMO-SKYMED 1          
1 31598U 07023A   25365.98659749  .00006720  00000+0  60523-3 0  9999
2 31598  97.8829 191.5135 0001125  86.0772 274.0577 14.95929227  4786
COSMOS 2428             
1 31792U 07029A   25365.92453039  .00000339  00000+0  20752-3 0  9999
2 31792  70.9376 345.5987 0004771 356.9765   3.1326 14.12899572954525
SL-16 R/B               
1 31793U 07029B   25365.90266245  .00000230  00000+0  14393-3 0  9993
2 31793  70.9772 314.8752 0002008 269.7687 150.2552 14.14823787955781
KORONAS-FOTON           
1 33504U 09003A   25365.90549649  .00014550  00000+0  34407-3 0  9999
2 33504  82.4306 346.2394 0012840  49.2391 310.9968 15.41591643935297
CZ-2C R/B               
1 37731U 11030B   25365.91875682  .00002392  00000+0  30885-3 0  9995
2 37731  97.8432 319.6041 0051965 209.6183 217.1850 14.80968325780066
H-2A R/B                
1 38341U 12025E   25365.92205944  .00004521  00000+0  41581-3 0  9998
2 38341  98.4620 322.6355 0044917 172.4706 187.7196 14.94586568738090
SHIJIAN-16 (SJ-16)      
1 39358U 13057A   25365.98081898  .00003710  00000+0  36697-3 0  9990
2 39358  74.9732 313.2450 0017954 275.6032  84.3108 14.92066616661403
