CCSDS_OMM_VERS = 2.0
CREATION_DATE  = 
ORIGINATOR     = 

OBJECT_NAME    = ALOS (DAICHI)
OBJECT_ID      = 2006-002A
CENTER_NAME    = EARTH
REF_FRAME      = TEME
TIME_SYSTEM    = UTC
MEAN_ELEMENT_THEORY = SGP/SGP4

EPOCH          = 2025-12-17T17:37:14.152512
MEAN_MOTION    = 14.69501788
ECCENTRICITY   = .00013612
INCLINATION    = 98.1098
RA_OF_ASC_NODE = 303.1864
ARG_OF_PERICENTER = 113.5739
MEAN_ANOMALY   = 246.5610

EPHEMERIS_TYPE = 0
CLASSIFICATION_TYPE = U
NORAD_CAT_ID   = 28931
ELEMENT_SET_NO = 999
REV_AT_EPOCH   = 6144
BSTAR          = .19545051E-3
MEAN_MOTION_DOT = .111E-4
MEAN_MOTION_DDOT = 0

CCSDS_OMM_VERS = 2.0
CREATION_DATE  = 
ORIGINATOR     = 

OBJECT_NAME    = H-2A R/B
OBJECT_ID      = 2006-002B
CENTER_NAME    = EARTH
REF_FRAME      = TEME
TIME_SYSTEM    = UTC
MEAN_ELEMENT_THEORY = SGP/SGP4

EPOCH          = 2025-12-31T21:01:44.909472
MEAN_MOTION    = 15.15000676
ECCENTRICITY   = .00546584
INCLINATION    = 98.2317
RA_OF_ASC_NODE = 142.1947
ARG_OF_PERICENTER = 111.8300
MEAN_ANOMALY   = 248.8757

EPHEMERIS_TYPE = 0
CLASSIFICATION_TYPE = U
NORAD_CAT_ID   = 28932
ELEMENT_SET_NO = 999
REV_AT_EPOCH   = 8416
BSTAR          = .81381871E-3
MEAN_MOTION_DOT = .1572E-3
MEAN_MOTION_DDOT = 0

CCSDS_OMM_VERS = 2.0
CREATION_DATE  = 
ORIGINATOR     = 

OBJECT_NAME    = RESURS-DK 1
OBJECT_ID      = 2006-021A
CENTER_NAME    = EARTH
REF_FRAME      = TEME
TIME_SYSTEM    = UTC
MEAN_ELEMENT_THEORY = SGP/SGP4

EPOCH          = 2025-12-31T13:11:59.378784
MEAN_MOTION    = 15.12283479
ECCENTRICITY   = .0007006
INCLINATION    = 69.9348
RA_OF_ASC_NODE = 53.2216
ARG_OF_PERICENTER = 242.6600
MEAN_ANOMALY   = 117.3853

EPHEMERIS_TYPE = 0
CLASSIFICATION_TYPE = U
NORAD_CAT_ID   = 29228
ELEMENT_SET_NO = 999
REV_AT_EPOCH   = 7722
BSTAR          = .28925465E-3
MEAN_MOTION_DOT = .4915E-4
MEAN_MOTION_DDOT = 0

CCSDS_OMM_VERS = 2.0
CREATION_DATE  = 
ORIGINATOR     = 

OBJECT_NAME    = CZ-4B R/B
OBJECT_ID      = 2006-046C
CENTER_NAME    = EARTH
REF_FRAME      = TEME
TIME_SYSTEM    = UTC
MEAN_ELEMENT_THEORY = SGP/SGP4

EPOCH          = 2025-12-31T17:06:43.174944
MEAN_MOTION    = 15.16088511
ECCENTRICITY   = .00347976
INCLINATION    = 97.5716
RA_OF_ASC_NODE = 45.8001
ARG_OF_PERICENTER = 141.0463
MEAN_ANOMALY   = 219.3286

EPHEMERIS_TYPE = 0
CLASSIFICATION_TYPE = U
NORAD_CAT_ID   = 29507
ELEMENT_SET_NO = 999
REV_AT_EPOCH   = 4974
BSTAR          = .42600178E-3
MEAN_MOTION_DOT = .8263E-4
MEAN_MOTION_DDOT = 0

CCSDS_OMM_VERS = 2.0
CREATION_DATE  = 
ORIGINATOR     = 

OBJECT_NAME    = CZ-2C R/B
OBJECT_ID      = 2007-010B
CENTER_NAME    = EARTH
REF_FRAME      = TEME
TIME_SYSTEM    = UTC
MEAN_ELEMENT_THEORY = SGP/SGP4

EPOCH          = 2025-12-31T21:09:44.572896
MEAN_MOTION    = 14.20218672
ECCENTRICITY   = .00598395
INCLINATION    = 98.3976
RA_OF_ASC_NODE = 117.5695
ARG_OF_PERICENTER = 130.7877
MEAN_ANOMALY   = 229.8514

EPHEMERIS_TYPE = 0
CLASSIFICATION_TYPE = U
NORAD_CAT_ID   = 31114
ELEMENT_SET_NO = 999
REV_AT_EPOCH   = 97009
BSTAR          = .13377496E-3
MEAN_MOTION_DOT = .25E-5
MEAN_MOTION_DDOT = 0

CCSDS_OMM_VERS = 2.0
CREATION_DATE  = 
ORIGINATOR     = 

OBJECT_NAME    = COSMO-SKYMED 1
OBJECT_ID      = 2007-023A
CENTER_NAME    = EARTH
REF_FRAME      = TEME
TIME_SYSTEM    = UTC
MEAN_ELEMENT_THEORY = SGP/SGP4

EPOCH          = 2025-12-31T23:40:42.023136
MEAN_MOTION    = 14.95929227
ECCENTRICITY   = .00011253
INCLINATION    = 97.8829
RA_OF_ASC_NODE = 191.5135
ARG_OF_PERICENTER = 86.0772
MEAN_ANOMALY   = 274.0577

EPHEMERIS_TYPE = 0
CLASSIFICATION_TYPE = U
NORAD_CAT_ID   = 31598
ELEMENT_SET_NO = 999
REV_AT_EPOCH   = 478
BSTAR          = .60523192E-3
MEAN_MOTION_DOT = .672E-4
MEAN_MOTION_DDOT = 0

CCSDS_OMM_VERS = 2.0
CREATION_DATE  = 
ORIGINATOR     = 

OBJECT_NAME    = COSMOS 2428
OBJECT_ID      = 2007-029A
CENTER_NAME    = EARTH
REF_FRAME      = TEME
TIME_SYSTEM    = UTC
MEAN_ELEMENT_THEORY = SGP/SGP4

EPOCH          = 2025-12-31T22:11:19.425696
MEAN_MOTION    = 14.12899572
ECCENTRICITY   = .00047713
INCLINATION    = 70.9376
RA_OF_ASC_NODE = 345.5987
ARG_OF_PERICENTER = 356.9765
MEAN_ANOMALY   = 3.1326

EPHEMERIS_TYPE = 0
CLASSIFICATION_TYPE = U
NORAD_CAT_ID   = 31792
ELEMENT_SET_NO = 999
REV_AT_EPOCH   = 95452
BSTAR          = .20752419E-3
MEAN_MOTION_DOT = .339E-5
MEAN_MOTION_DDOT = 0

CCSDS_OMM_VERS = 2.0
CREATION_DATE  = 
ORIGINATOR     = 

OBJECT_NAME    = SL-16 R/B
OBJECT_ID      = 2007-029B
CENTER_NAME    = EARTH
REF_FRAME      = TEME
TIME_SYSTEM    = UTC
MEAN_ELEMENT_THEORY = SGP/SGP4

EPOCH          = 2025-12-31T21:39:50.035680
MEAN_MOTION    = 14.14823787
ECCENTRICITY   = .00020083
INCLINATION    = 70.9772
RA_OF_ASC_NODE = 314.8752
ARG_OF_PERICENTER = 269.7687
MEAN_ANOMALY   = 150.2552

EPHEMERIS_TYPE = 0
CLASSIFICATION_TYPE = U
NORAD_CAT_ID   = 31793
ELEMENT_SET_NO = 999
REV_AT_EPOCH   = 95578
BSTAR          = .14393093E-3
MEAN_MOTION_DOT = .23E-5
MEAN_MOTION_DDOT = 0

CCSDS_OMM_VERS = 2.0
CREATION_DATE  = 
ORIGINATOR     = 

OBJECT_NAME    = KORONAS-FOTON
OBJECT_ID      = 2009-003A
CENTER_NAME    = EARTH
REF_FRAME      = TEME
TIME_SYSTEM    = UTC
MEAN_ELEMENT_THEORY = SGP/SGP4

EPOCH          = 2025-12-31T21:43:54.896736
MEAN_MOTION    = 15.41591643
ECCENTRICITY   = .00128405
INCLINATION    = 82.4306
RA_OF_ASC_NODE = 346.2394
ARG_OF_PERICENTER = 49.2391
MEAN_ANOMALY   = 310.9968

EPHEMERIS_TYPE = 0
CLASSIFICATION_TYPE = U
NORAD_CAT_ID   = 33504
ELEMENT_SET_NO = 999
REV_AT_EPOCH   = 93529
BSTAR          = .34406833E-3
MEAN_MOTION_DOT = .1455E-3
MEAN_MOTION_DDOT = 0

CCSDS_OMM_VERS = 2.0
CREATION_DATE  = 
ORIGINATOR     = 

OBJECT_NAME    = CZ-2C R/B
OBJECT_ID      = 2011-030B
CENTER_NAME    = EARTH
REF_FRAME      = TEME
TIME_SYSTEM    = UTC
MEAN_ELEMENT_THEORY = SGP/SGP4

EPOCH          = 2025-12-31T22:03:00.589248
MEAN_MOTION    = 14.80968325
ECCENTRICITY   = .00519655
INCLINATION    = 97.8432
RA_OF_ASC_NODE = 319.6041
ARG_OF_PERICENTER = 209.6183
MEAN_ANOMALY   = 217.1850

EPHEMERIS_TYPE = 0
CLASSIFICATION_TYPE = U
NORAD_CAT_ID   = 37731
ELEMENT_SET_NO = 999
REV_AT_EPOCH   = 78006
BSTAR          = .30884969E-3
MEAN_MOTION_DOT = .2392E-4
MEAN_MOTION_DDOT = 0

CCSDS_OMM_VERS = 2.0
CREATION_DATE  = 
ORIGINATOR     = 

OBJECT_NAME    = H-2A R/B
OBJECT_ID      = 2012-025E
CENTER_NAME    = EARTH
REF_FRAME      = TEME
TIME_SYSTEM    = UTC
MEAN_ELEMENT_THEORY = SGP/SGP4

EPOCH          = 2025-12-31T22:07:45.935616
MEAN_MOTION    = 14.94586568
ECCENTRICITY   = .00449174
INCLINATION    = 98.4620
RA_OF_ASC_NODE = 322.6355
ARG_OF_PERICENTER = 172.4706
MEAN_ANOMALY   = 187.7196

EPHEMERIS_TYPE = 0
CLASSIFICATION_TYPE = U
NORAD_CAT_ID   = 38341
ELEMENT_SET_NO = 999
REV_AT_EPOCH   = 73809
BSTAR          = .41580701E-3
MEAN_MOTION_DOT = .4521E-4
MEAN_MOTION_DDOT = 0

CCSDS_OMM_VERS = 2.0
CREATION_DATE  = 
ORIGINATOR     = 

OBJECT_NAME    = SHIJIAN-16 (SJ-16)
OBJECT_ID      = 2013-057A
CENTER_NAME    = EARTH
REF_FRAME      = TEME
TIME_SYSTEM    = UTC
MEAN_ELEMENT_THEORY = SGP/SGP4

EPOCH          = 2025-12-31T23:32:22.759872
MEAN_MOTION    = 14.92066616
ECCENTRICITY   = .00179548
INCLINATION    = 74.9732
RA_OF_ASC_NODE = 313.2450
ARG_OF_PERICENTER = 275.6032
MEAN_ANOMALY   = 84.3108

EPHEMERIS_TYPE = 0
CLASSIFICATION_TYPE = U
NORAD_CAT_ID   = 39358
ELEMENT_SET_NO = 999
REV_AT_EPOCH   = 66140
BSTAR          = .36696887E-3
MEAN_MOTION_DOT = .371E-4
MEAN_MOTION_DDOT = 0

